ION SCV-004             
1 50993U 22002K   26068.68892644  .00006538  00000+0  23198-3 0  9998
2 50993  97.2961 128.2294 0007216   1.6783 358.4480 15.29369331230088
STARLINK-30713          
1 57952U 23148T   26068.16066212  .00005251  00000+0  18932-3 0  9990
2 57952  53.1601  26.5766 0001236  69.2154 290.8980 15.30192059138347
