[{"OBJECT_NAME":"ION SCV-004","OBJECT_ID":"2022-002K","EPOCH":"2026-03-09T16:32:03.244416","MEAN_MOTION":15.29369331,"ECCENTRICITY":0.00072157,"INCLINATION":97.2961,"RA_OF_ASC_NODE":128.2294,"ARG_OF_PERICENTER":1.6783,"MEAN_ANOMALY":358.448,"EPHEMERIS_TYPE":0,"CLASSIFICATION_TYPE":"U","NORAD_CAT_ID":50993,"ELEMENT_SET_NO":999,"REV_AT_EPOCH":23008,"BSTAR":0.00023198467,"MEAN_MOTION_DOT":6.538e-5,"MEAN_MOTION_DDOT":0},{"OBJECT_NAME":"STARLINK-30713","OBJECT_ID":"2023-148T","EPOCH":"2026-03-09T03:51:21.207168","MEAN_MOTION":15.30192059,"ECCENTRICITY":0.00012361,"INCLINATION":53.1601,"RA_OF_ASC_NODE":26.5766,"ARG_OF_PERICENTER":69.2154,"MEAN_ANOMALY":290.898,"EPHEMERIS_TYPE":0,"CLASSIFICATION_TYPE":"U","NORAD_CAT_ID":57952,"ELEMENT_SET_NO":999,"REV_AT_EPOCH":13834,"BSTAR":0.00018932402,"MEAN_MOTION_DOT":5.251e-5,"MEAN_MOTION_DDOT":0}]
